JILIN-1 09              
1 43943U 19005B   25162.85679706  .00003461  00000+0  18345-3 0  9999
2 43943  97.4811 257.1124 0001529 327.5817  32.5322 15.16047691352958
JILIN-1 10              
1 43946U 19005E   25162.86835037  .00004471  00000+0  20979-3 0  9992
2 43946  97.4815 258.2792 0010309 132.3963 227.8146 15.20125412352954
EGYPTSAT-A (MISRSAT-A)  
1 44047U 19008A   25162.89081372  .00000482  00000+0  84027-4 0  9999
2 44047  98.0201 228.0256 0001778 109.1142 251.0258 14.72348404338753
EMISAT                  
1 44078U 19018A   25162.83153366  .00000185  00000+0  66883-4 0  9991
2 44078  98.2867 219.7566 0017115 252.4495 107.4826 14.43774431326611
JILIN-1 GAOFEN 3A       
1 44312U 19032C   25162.62541480  .00005478  00000+0  24094-3 0  9990
2 44312  44.9802 220.6100 0012845 339.7419  20.2951 15.22879535331171
XIAOXIANG 4             
1 44313U 19032D   25162.84002321  .00049131  00000+0  73691-3 0  9992
2 44313  44.9882 154.7550 0015179  52.8318 307.3959 15.54096491332030
WT 1A                   
1 44315U 19032F   25162.88993721  .00018972  00000+0  49404-3 0  9995
2 44315  44.9832 170.8039 0015409  32.7293 327.4546 15.38538753331806
WT 1B                   
1 44316U 19032G   25162.76630489  .00005408  00000+0  27675-3 0  9998
2 44316  44.9779 267.6837 0016615 297.1856  62.7329 15.17585961330638
PROX-1                  
1 44339U 19036A   25162.91030456  .00007884  00000+0  98485-3 0  9999
2 44339  23.9980  46.4873 0007189  99.9377 260.1932 14.79999185318363
NPSAT1                  
1 44340U 19036B   25162.52341966  .00003309  00000+0  50635-3 0  9992
2 44340  23.9984 102.2814 0008202 359.5564   0.4923 14.69545363317879
FORMOSAT 7-3            
1 44343U 19036E   25162.19153965  .00003040  00000+0  18253-3 0  9990
2 44343  23.9977 203.9523 0000949 160.3343 199.7197 15.05718654327280
FORMOSAT 7-1            
1 44349U 19036L   25162.92375055  .00003336  00000+0  20313-3 0  9991
2 44349  24.0004  14.9743 0001544 304.2483  55.7873 15.05596943329064
FORMOSAT 7-4            
1 44350U 19036M   25162.87846502  .00003264  00000+0  19860-3 0  9992
2 44350  23.9991  77.3556 0000766 171.4094 188.6422 15.05545236328470
FORMOSAT 7-2            
1 44351U 19036N   25162.23907194  .00003257  00000+0  19753-3 0  9991
2 44351  23.9968 136.0642 0000727 205.8926 154.1541 15.05648161327949
FORMOSAT 7-6            
1 44353U 19036Q   25162.76902448  .00003298  00000+0  20046-3 0  9990
2 44353  23.9994 313.2675 0000945 356.8722   3.1775 15.05615199326203
FORMOSAT 7-5            
1 44358U 19036V   25162.48045567  .00003063  00000+0  18486-3 0  9999
2 44358  23.9990 255.0097 0000832 120.3860 239.6725 15.05575715326779
METEOR-M2 2             
1 44387U 19038A   25162.88639111  .00000054  00000+0  43067-4 0  9992
2 44387  98.8742 140.5899 0001815  44.1334 315.9989 14.24209199308585
SONATE                  
1 44400U 19038Q   25162.64776402  .00282115  33664-4  69287-3 0  9995
2 44400  97.6838 189.9724 0008020 201.1997 158.8947 15.96024898329901
COSMOS 2535             
1 44421U 19039A   25162.91602112  .00000952  00000+0  10233-3 0  9992
2 44421  97.6182 199.5815 0008867  15.9035 344.2461 14.90761804321459
QIANSHENG 1-01          
1 44486U 19052A   25162.79281269  .00174649  00000+0  11098-2 0  9994
2 44486  97.3559 242.6747 0003309 125.5406 234.6168 15.75966246322183
GLOBAL-4                
1 44499U 19054E   25162.71089821  .00009172  00000+0  24082-3 0  9998
2 44499  45.0097 166.9374 0003876 102.4841 257.6480 15.39004524322896
ZY-1 02D                
1 44528U 19059A   25162.86638152  .00000094  00000+0  47552-4 0  9991
2 44528  98.3675 231.4235 0002501 124.3466 235.7957 14.35438598301212
TAURUS-1 (JINNIUZUO 1)  
1 44530U 19059C   25162.84240810  .00004351  00000+0  80538-3 0  9992
2 44530  98.6076 302.3421 0009432  37.9008 322.2857 14.65869570304270
ZHUHAI-1 03A            
1 44534U 19060A   25162.86806708  .00119614  00000+0  73286-3 0  9995
2 44534  97.5192 309.7990 0006782 171.7231 188.4148 15.76931150319653
ZHUHAI-1 03B            
1 44536U 19060C   25162.85897481  .00012096  00000+0  38188-3 0  9992
2 44536  97.5176 303.2846 0013110 209.7081 150.3417 15.32911852319245
ZHUHAI-1 03C            
1 44537U 19060D   25162.84928472  .00018805  00000+0  43949-3 0  9992
2 44537  97.5437 306.0476 0019474 180.1438 179.9806 15.42021795319454
ZHUHAI-1 03D            
1 44538U 19060E   25162.83398699  .00010975  00000+0  37720-3 0  9994
2 44538  97.5008 298.2096 0012245 188.9765 171.1258 15.30207939319129
ZHUHAI-1 03E            
1 44539U 19060F   25162.85044525  .00008968  00000+0  33891-3 0  9997
2 44539  97.5204 300.2234 0010327 245.3372 114.6792 15.27173831319008
ATLAS 5 CENTAUR DEB     
1 44694U 18079BG  25161.91187073 -.00000103  00000+0  00000+0 0  9996
2 44694  13.1819  69.4085 4752985 239.9875  64.5492  1.77434544 39974
GAOFEN-7                
1 44703U 19072A   25162.90735241  .00004072  00000+0  18525-3 0  9990
2 44703  97.2913 232.1070 0009419 222.7568 137.2936 15.21233032311346
STARLINK-1010           
1 44716U 19074D   25162.91668981  .00155480  00000+0  29093-2 0  9994
2 44716  53.0562 312.0339 0002911 261.7061  51.7984 15.47674067  5648
JILIN-1 GAOFEN 2A       
1 44777U 19075A   25162.86067715  .00007408  00000+0  27344-3 0  9998
2 44777  97.5323 235.5816 0007065 329.0582  31.0240 15.28045259308133
NINGXIA-1 1             
1 44779U 19076A   25162.91387569 -.00000054  00000+0  49272-4 0  9995
2 44779  45.0081  34.4110 0010884 207.8630 152.1622 14.01924867285894
NINGXIA-1 5             
1 44783U 19076E   25162.85595399 -.00000045  00000+0  55385-4 0  9997
2 44783  45.0079  34.0216 0010750 195.2902 164.7609 14.01949002285806
KL-ALPHA A              
1 44785U 19077A   25162.84549814  .00000047  00000+0  49106-4 0  9995
2 44785  88.9098 263.4734 0013234 108.0451 252.2146 13.55996396275544
CARTOSAT-3              
1 44804U 19081A   25162.86793934  .00003339  00000+0  16190-3 0  9991
2 44804  97.4809 224.4580 0013788  10.7730 349.3797 15.19131109307248
JILIN-1 GAOFEN 2B       
1 44836U 19086A   25162.92401375  .00004468  00000+0  24136-3 0  9996
2 44836  97.5313 232.8051 0016563 161.6006 198.5828 15.15110111304327
DUCHIFAT-3              
1 44854U 19089C   25162.81936114  .00035057  00000+0  68062-3 0  9995
2 44854  36.9438 340.9567 0004765 327.5835  32.4629 15.46715364303362
ANGELS                  
1 44876U 19092D   25162.00531539  .00017795  00000+0  38578-3 0  9994
2 44876  97.4550   0.4689 0008319 119.7957 240.4120 15.44440238304362
TIANQIN 1 (CAS-6)       
1 44879U 19093A   25162.86734502  .00001781  00000+0  17830-3 0  9993
2 44879  97.8073 244.5785 0011437 198.3232 161.7577 14.92627068296755
ETRSS-1                 
1 44880U 19093B   25162.87269067  .00001714  00000+0  17113-3 0  9995
2 44880  97.8080 244.8364 0011643 199.8453 160.2315 14.92785950296750
TIANYAN 01              
1 44881U 19093C   25162.91729777  .00000697  00000+0  86579-4 0  9992
2 44881  97.7925 238.5181 0012864 219.1343 140.8943 14.85604945296426
TIANYAN 02              
1 44882U 19093D   25162.87583266  .00003961  00000+0  33079-3 0  9992
2 44882  97.8232 250.4650 0010637 183.8988 176.2154 14.99086569297026
CBERS 4A                
1 44883U 19093E   25162.79367815  .00000809  00000+0  10947-3 0  9991
2 44883  97.7929 235.9771 0000890 304.5957  55.5172 14.81611538296231
WEILAI 1R               
1 44884U 19093F   25162.84693651  .00003836  00000+0  34469-3 0  9996
2 44884  97.8099 247.8561 0010162 191.3685 168.7308 14.96255147296967
FLORIPASAT-1            
1 44885U 19093G   25162.88500913  .00003068  00000+0  26133-3 0  9995
2 44885  97.8172 250.4907 0010022 192.1039 167.9944 14.98493631297097
SHUNTIAN                
1 44886U 19093H   25162.79565885  .00002266  00000+0  22611-3 0  9991
2 44886  97.8212 248.1741 0011668 209.7078 150.3479 14.92504365296884
2019-093L               
1 44889U 19093L   25162.79197802  .00001756  00000+0  18024-3 0  9990
2 44889  97.7890 240.4776 0012275 195.5268 164.5576 14.91639670296533
ELEKTRO-L 3             
1 44903U 19095A   25162.80370293 -.00000079  00000+0  00000+0 0  9997
2 44903   0.0705 172.4082 0000673 291.4225 161.9489  1.00271876 19997
GONETS-M 14             
1 44905U 19096A   25162.84170193  .00000016  00000+0  41639-4 0  9999
2 44905  82.5231 314.2214 0013027 238.4327 121.5481 12.42893572247675
GONETS-M 15             
1 44906U 19096B   25162.86690525  .00000003  00000+0 -52023-4 0  9994
2 44906  82.5252 314.6012 0014701 261.9826  97.9585 12.42895844247646
GONETS-M 16             
1 44907U 19096C   25162.89402315  .00000008  00000+0 -15285-4 0  9990
2 44907  82.5197 313.7039 0010377 306.6789  53.3337 12.42854078247638
RS-44 & BREEZE-KM R/B   
1 44909U 19096E   25162.89922266  .00000038  00000+0  11582-3 0  9991
2 44909  82.5216 225.7372 0216304 290.2715  67.5254 12.79741009254989
JILIN-1 KUANFU 01       
1 45016U 20003A   25162.84651781  .00002315  00000+0  14345-3 0  9997
2 45016  97.5412 238.3877 0001290 270.3591  89.7491 15.10742713299439
XINGYUN-2 01            
1 45602U 20028A   25162.93779730  .00001995  00000+0  12831-3 0  9991
2 45602  97.4649 158.8552 0010810  45.5889 314.6223 15.09482239278945
XINGYUN-2 02            
1 45603U 20028B   25162.93639006  .00001470  00000+0  95810-4 0  9990
2 45603  97.5080 170.9993 0013188 102.4216 257.8490 15.09371780278940
HAIYANG-1D              
1 45721U 20036A   25162.79585099  .00000106  00000+0  53759-4 0  9997
2 45721  98.6301 107.7351 0002518 105.9301 254.2161 14.34111170261886
M2 PATHFINDER           
1 45727U 20037E   25161.93773963  .00001533  00000+0  12100-3 0  9997
2 45727  97.8104 344.5980 0012450 330.5955  29.4568 15.02195656269710
GAOFEN DUOMO (GFDM)     
1 45856U 20042A   25162.86591643  .00000636  00000+0  97768-4 0  9999
2 45856  97.8243 230.0936 0011675 187.5067 172.5971 14.76742836266352
